[{"OBJECT_NAME":"YAOGAN-36 02B","OBJECT_ID":"2022-133B","EPOCH":"2026-03-09T22:42:31.775904","MEAN_MOTION":15.30199518,"ECCENTRICITY":0.00056841,"INCLINATION":34.9983,"RA_OF_ASC_NODE":22.5268,"ARG_OF_PERICENTER":273.0351,"MEAN_ANOMALY":86.9715,"EPHEMERIS_TYPE":0,"CLASSIFICATION_TYPE":"U","NORAD_CAT_ID":54043,"ELEMENT_SET_NO":999,"REV_AT_EPOCH":18962,"BSTAR":0.00051218814,"MEAN_MOTION_DOT":0.00015352,"MEAN_MOTION_DDOT":0},{"OBJECT_NAME":"STARLINK-32222","OBJECT_ID":"2024-144L","EPOCH":"2026-03-09T17:12:25.454592","MEAN_MOTION":15.30184598,"ECCENTRICITY":0.00018483,"INCLINATION":53.1603,"RA_OF_ASC_NODE":216.9816,"ARG_OF_PERICENTER":47.2647,"MEAN_ANOMALY":312.8509,"EPHEMERIS_TYPE":0,"CLASSIFICATION_TYPE":"U","NORAD_CAT_ID":60435,"ELEMENT_SET_NO":999,"REV_AT_EPOCH":8931,"BSTAR":9.756489e-6,"MEAN_MOTION_DOT":-7.1e-7,"MEAN_MOTION_DDOT":0}]
